{"type":"FeatureCollection","features":[{"type":"Feature","id":"ne-1159151605","geometry":{"type":"Point","coordinates":[121.434559,31.218398]},"properties":{"name":"Shanghai","display_name":"上海 Shanghai","name_ascii":"Shanghai","population":14987000,"source":"Natural Earth v5.1.2"}},{"type":"Feature","id":"ne-1159151595","geometry":{"type":"Point","coordinates":[116.394201,39.90172]},"properties":{"name":"Beijing","display_name":"北京 Beijing","name_ascii":"Beijing","population":11106000,"source":"Natural Earth v5.1.2"}},{"type":"Feature","id":"ne-1159151523","geometry":{"type":"Point","coordinates":[126.997785,37.568295]},"properties":{"name":"Seoul","display_name":"Seoul","name_ascii":"Seoul","population":9796000,"source":"Natural Earth v5.1.2"}},{"type":"Feature","id":"ne-1159151367","geometry":{"type":"Point","coordinates":[114.268071,30.581977]},"properties":{"name":"Wuhan","display_name":"武汉 Wuhan","name_ascii":"Wuhan","population":7243000,"source":"Natural Earth v5.1.2"}},{"type":"Feature","id":"ne-1159151381","geometry":{"type":"Point","coordinates":[117.196607,39.082772]},"properties":{"name":"Tianjin","display_name":"天津 Tianjin","name_ascii":"Tianjin","population":7180000,"source":"Natural Earth v5.1.2"}},{"type":"Feature","id":"ne-1159151327","geometry":{"type":"Point","coordinates":[106.593036,29.566923]},"properties":{"name":"Chongqing","display_name":"Chongqing","name_ascii":"Chongqing","population":6461000,"source":"Natural Earth v5.1.2"}},{"type":"Feature","id":"ne-1159151377","geometry":{"type":"Point","coordinates":[123.448028,41.806925]},"properties":{"name":"Shenyeng","display_name":"Shenyeng","name_ascii":"Shenyeng","population":4787000,"source":"Natural Earth v5.1.2"}},{"type":"Feature","id":"ne-1159151533","geometry":{"type":"Point","coordinates":[104.068074,30.671946]},"properties":{"name":"Chengdu","display_name":"Chengdu","name_ascii":"Chengdu","population":4123000,"source":"Natural Earth v5.1.2"}},{"type":"Feature","id":"ne-1159151363","geometry":{"type":"Point","coordinates":[108.89305,34.276971]},"properties":{"name":"Xian","display_name":"Xian","name_ascii":"Xian","population":4009000,"source":"Natural Earth v5.1.2"}},{"type":"Feature","id":"ne-1159151385","geometry":{"type":"Point","coordinates":[118.778029,32.051965]},"properties":{"name":"Nanjing","display_name":"南京 Nanjing","name_ascii":"Nanjing","population":3679000,"source":"Natural Earth v5.1.2"}},{"type":"Feature","id":"ne-1159151397","geometry":{"type":"Point","coordinates":[126.648039,45.75193]},"properties":{"name":"Harbin","display_name":"哈尔滨 Harbin","name_ascii":"Harbin","population":3621000,"source":"Natural Earth v5.1.2"}},{"type":"Feature","id":"ne-1159149599","geometry":{"type":"Point","coordinates":[129.008102,35.096999]},"properties":{"name":"Busan","display_name":"Busan","name_ascii":"Busan","population":3480000,"source":"Natural Earth v5.1.2"}},{"type":"Feature","id":"ne-1159151303","geometry":{"type":"Point","coordinates":[125.752745,39.021385]},"properties":{"name":"Pyongyang","display_name":"Pyongyang","name_ascii":"Pyongyang","population":3300000,"source":"Natural Earth v5.1.2"}},{"type":"Feature","id":"ne-1159151393","geometry":{"type":"Point","coordinates":[125.338042,43.866954]},"properties":{"name":"Changchun","display_name":"长春 Changchun","name_ascii":"Changchun","population":3183000,"source":"Natural Earth v5.1.2"}},{"type":"Feature","id":"ne-1159149913","geometry":{"type":"Point","coordinates":[121.627885,38.924784]},"properties":{"name":"Dalian","display_name":"大连 Dalian","name_ascii":"Dalian","population":3167000,"source":"Natural Earth v5.1.2"}},{"type":"Feature","id":"ne-1159151217","geometry":{"type":"Point","coordinates":[117.99646,36.821365]},"properties":{"name":"Zibo","display_name":"Zibo","name_ascii":"Zibo","population":3061000,"source":"Natural Earth v5.1.2"}},{"type":"Feature","id":"ne-1159151387","geometry":{"type":"Point","coordinates":[120.168073,30.25192]},"properties":{"name":"Hangzhou","display_name":"杭州 Hangzhou","name_ascii":"Hangzhou","population":3007000,"source":"Natural Earth v5.1.2"}},{"type":"Feature","id":"ne-1159151365","geometry":{"type":"Point","coordinates":[112.543112,37.876958]},"properties":{"name":"Taiyuan","display_name":"太原 Taiyuan","name_ascii":"Taiyuan","population":2913000,"source":"Natural Earth v5.1.2"}},{"type":"Feature","id":"ne-1159149917","geometry":{"type":"Point","coordinates":[120.328063,36.091925]},"properties":{"name":"Qingdao","display_name":"青岛 Qingdao","name_ascii":"Qingdao","population":2866000,"source":"Natural Earth v5.1.2"}},{"type":"Feature","id":"ne-1159151379","geometry":{"type":"Point","coordinates":[116.993073,36.676928]},"properties":{"name":"Jinan","display_name":"济南 Jinan","name_ascii":"Jinan","population":2798000,"source":"Natural Earth v5.1.2"}},{"type":"Feature","id":"ne-1159149927","geometry":{"type":"Point","coordinates":[130.408068,33.596961]},"properties":{"name":"Fukuoka","display_name":"Fukuoka","name_ascii":"Fukuoka","population":2792000,"source":"Natural Earth v5.1.2"}},{"type":"Feature","id":"ne-1159151375","geometry":{"type":"Point","coordinates":[113.663147,34.756942]},"properties":{"name":"Zhengzhou","display_name":"郑州 Zhengzhou","name_ascii":"Zhengzhou","population":2636000,"source":"Natural Earth v5.1.2"}},{"type":"Feature","id":"ne-1159151369","geometry":{"type":"Point","coordinates":[112.968047,28.201916]},"properties":{"name":"Changsha","display_name":"Changsha","name_ascii":"Changsha","population":2604000,"source":"Natural Earth v5.1.2"}},{"type":"Feature","id":"ne-1159140809","geometry":{"type":"Point","coordinates":[112.900023,27.850431]},"properties":{"name":"Xiangtan","display_name":"Xiangtan","name_ascii":"Xiangtan","population":2586948,"source":"Natural Earth v5.1.2"}}]}
