{"type":"FeatureCollection", "features": [
{"type":"Feature","geometry":{"type":"Polygon","coordinates":[[[131,34.00792],[131,34.38914],[130.95186,34.34971],[130.9043,34.29956],[130.88926,34.26182],[130.91885,33.97573],[130.99639,34.00728],[131,34.00792]]]},"properties":{"scalerank":0,"featurecla":"Land","min_zoom":0}},
{"type":"Feature","geometry":{"type":"Polygon","coordinates":[[[131,31.18386],[131,33.79144],[130.95313,33.87202],[130.83965,33.91777],[130.71562,33.92778],[130.66953,33.91548],[130.48379,33.83462],[130.45723,33.78896],[130.43945,33.73423],[130.36504,33.63447],[130.2751,33.59771],[130.16797,33.59829],[130.13057,33.57817],[130.10342,33.5397],[130.07207,33.52178],[129.91914,33.4835],[129.82568,33.43701],[129.83662,33.40381],[129.85752,33.37524],[129.84414,33.32178],[129.70215,33.35981],[129.65996,33.36499],[129.61016,33.34365],[129.58008,33.23628],[129.66504,33.18662],[129.79873,33.08359],[129.89678,33.02236],[129.92188,32.98799],[129.9917,32.85156],[129.90078,32.8519],[129.82832,32.89268],[129.77773,32.98555],[129.6791,33.05996],[129.66231,32.99492],[129.66777,32.9294],[129.69004,32.87524],[129.78594,32.78164],[129.82676,32.72534],[129.80811,32.64526],[129.76856,32.571],[129.85254,32.62173],[129.95078,32.72173],[130.0541,32.7708],[130.15205,32.74785],[130.19297,32.7063],[130.24551,32.67715],[130.29766,32.675],[130.34043,32.70186],[130.36084,32.75586],[130.35352,32.81035],[130.32647,32.85264],[130.28008,32.86685],[130.22217,32.84683],[130.175,32.85132],[130.16777,32.93179],[130.17315,33.01299],[130.12686,33.10483],[130.17685,33.14453],[130.2375,33.17764],[130.28731,33.15478],[130.38174,33.09258],[130.44043,32.95137],[130.54727,32.83159],[130.56943,32.73413],[130.49785,32.65693],[130.56328,32.62637],[130.64053,32.61924],[130.56035,32.45606],[130.46201,32.30493],[130.39492,32.21899],[130.31914,32.14351],[130.21406,32.11504],[130.19443,32.09077],[130.1958,31.94985],[130.21094,31.84898],[130.18789,31.76885],[130.22422,31.73008],[130.26895,31.69634],[130.32197,31.60147],[130.30664,31.48779],[130.29414,31.45068],[130.26055,31.43657],[130.14727,31.4085],[130.20068,31.2919],[130.25059,31.27319],[130.31065,31.2669],[130.58877,31.17852],[130.62148,31.21753],[130.64453,31.26748],[130.56592,31.35239],[130.54043,31.40308],[130.52812,31.45967],[130.55605,31.56309],[130.61348,31.66543],[130.65508,31.71841],[130.71455,31.71768],[130.77627,31.7063],[130.79688,31.67129],[130.79629,31.62407],[130.77979,31.6041],[130.74941,31.59819],[130.7042,31.57744],[130.70898,31.52607],[130.77422,31.3832],[130.78975,31.26909],[130.7584,31.15581],[130.73574,31.12207],[130.70449,31.09409],[130.68418,31.05928],[130.68574,31.01514],[130.90225,31.11206],[131,31.18386]]]},"properties":{"scalerank":0,"featurecla":"Land","min_zoom":0}},
{"type":"Feature","geometry":{"type":"Polygon","coordinates":[[[126.75303,34.34399],[126.7,34.3959],[126.65186,34.39033],[126.64609,34.35112],[126.68906,34.30542],[126.76992,34.29644],[126.75303,34.34399]]]},"properties":{"scalerank":0,"featurecla":"Land","min_zoom":4}},
{"type":"Feature","geometry":{"type":"Polygon","coordinates":[[[128.99815,27.7208],[129.01641,27.77022],[128.98975,27.81113],[128.95166,27.91025],[128.90762,27.898],[128.88281,27.84243],[128.9,27.72778],[128.95625,27.70249],[128.99815,27.7208]]]},"properties":{"scalerank":0,"featurecla":"Land","min_zoom":3}},
{"type":"Feature","geometry":{"type":"Polygon","coordinates":[[[129.45254,28.20898],[129.43906,28.25479],[129.45674,28.27231],[129.5127,28.29873],[129.57461,28.36118],[129.6417,28.41128],[129.71045,28.43213],[129.71465,28.46963],[129.68955,28.51748],[129.59805,28.47588],[129.57715,28.46128],[129.56055,28.43106],[129.50967,28.39751],[129.46455,28.39526],[129.32246,28.35962],[129.25088,28.31357],[129.24785,28.28252],[129.21709,28.26294],[129.16465,28.24976],[129.2749,28.20088],[129.36641,28.12773],[129.45254,28.20898]]]},"properties":{"scalerank":0,"featurecla":"Land","min_zoom":2}},
{"type":"Feature","geometry":{"type":"Polygon","coordinates":[[[129.32402,28.10493],[129.27734,28.14473],[129.25742,28.17617],[129.19248,28.19248],[129.23242,28.10112],[129.33057,28.08159],[129.32402,28.10493]]]},"properties":{"scalerank":0,"featurecla":"Land","min_zoom":4}},
{"type":"Feature","geometry":{"type":"Polygon","coordinates":[[[130.62275,30.26299],[130.67324,30.3669],[130.64356,30.38897],[130.49717,30.46553],[130.38809,30.38818],[130.44561,30.2647],[130.5082,30.24141],[130.62275,30.26299]]]},"properties":{"scalerank":0,"featurecla":"Land","min_zoom":3}},
{"type":"Feature","geometry":{"type":"Polygon","coordinates":[[[130.95977,30.39692],[130.99258,30.52998],[131,30.54286],[131,30.76949],[130.94736,30.67119],[130.93994,30.5751],[130.87031,30.44424],[130.87217,30.38633],[130.95977,30.39692]]]},"properties":{"scalerank":0,"featurecla":"Land","min_zoom":3}},
{"type":"Feature","geometry":{"type":"Polygon","coordinates":[[[128.66533,32.78389],[128.64912,32.66201],[128.65732,32.62842],[128.69297,32.60474],[128.75049,32.58613],[128.79043,32.63672],[128.82129,32.64634],[128.89453,32.65215],[128.87939,32.69331],[128.83857,32.76289],[128.80605,32.77598],[128.76104,32.77236],[128.7041,32.75688],[128.66533,32.78389]]]},"properties":{"scalerank":0,"featurecla":"Land","min_zoom":3}},
{"type":"Feature","geometry":{"type":"Polygon","coordinates":[[[130.08252,32.22969],[130.19951,32.34058],[130.19668,32.4916],[130.16777,32.54121],[130.00977,32.52163],[130.02129,32.46885],[129.9793,32.34619],[130.01533,32.31367],[130.01728,32.29185],[129.96016,32.24375],[129.99336,32.22817],[130.00352,32.19399],[130.08252,32.22969]]]},"properties":{"scalerank":0,"featurecla":"Land","min_zoom":3}},
{"type":"Feature","geometry":{"type":"Polygon","coordinates":[[[130.38106,32.42373],[130.41856,32.45772],[130.46143,32.51572],[130.36543,32.5272],[130.2417,32.46279],[130.25606,32.43101],[130.29258,32.41934],[130.38106,32.42373]]]},"properties":{"scalerank":0,"featurecla":"Land","min_zoom":3}},
{"type":"Feature","geometry":{"type":"Polygon","coordinates":[[[129.07695,32.84028],[129.11162,32.92886],[129.15352,32.94619],[129.18193,32.99312],[129.15273,33.00332],[129.12363,33.06768],[129.10977,33.13257],[129.03496,32.96909],[128.99727,32.95186],[129.01963,32.91963],[129.05195,32.82949],[129.07695,32.84028]]]},"properties":{"scalerank":0,"featurecla":"Land","min_zoom":3}},
{"type":"Feature","geometry":{"type":"Polygon","coordinates":[[[129.4918,33.22305],[129.50811,33.28433],[129.56992,33.36104],[129.53799,33.35776],[129.46191,33.33125],[129.42315,33.25737],[129.41699,33.2311],[129.37041,33.17603],[129.42139,33.17583],[129.4918,33.22305]]]},"properties":{"scalerank":0,"featurecla":"Land","min_zoom":3}},
{"type":"Feature","geometry":{"type":"Polygon","coordinates":[[[129.7957,33.74883],[129.77637,33.8292],[129.71729,33.8584],[129.7,33.82891],[129.67481,33.7397],[129.72656,33.70732],[129.7957,33.74883]]]},"properties":{"scalerank":0,"featurecla":"Land","min_zoom":3}},
{"type":"Feature","geometry":{"type":"Polygon","coordinates":[[[129.27949,34.12339],[129.33506,34.23081],[129.33711,34.28477],[129.21484,34.32065],[129.18643,34.14502],[129.21445,34.08281],[129.27949,34.12339]]]},"properties":{"scalerank":0,"featurecla":"Land","min_zoom":3}},
{"type":"Feature","geometry":{"type":"Polygon","coordinates":[[[129.38565,34.35366],[129.38145,34.41646],[129.47539,34.54043],[129.46914,34.61553],[129.48018,34.64946],[129.47246,34.67134],[129.45107,34.68657],[129.32588,34.60728],[129.32207,34.5793],[129.3294,34.52188],[129.2667,34.37046],[129.29746,34.3396],[129.36533,34.30552],[129.38565,34.35366]]]},"properties":{"scalerank":0,"featurecla":"Land","min_zoom":3}},
{"type":"Feature","geometry":{"type":"Polygon","coordinates":[[[128.74102,34.79854],[128.72188,35.01357],[128.66797,35.00879],[128.58594,34.93227],[128.48926,34.86528],[128.51953,34.81958],[128.64668,34.73687],[128.74102,34.79854]]]},"properties":{"scalerank":0,"featurecla":"Land","min_zoom":3}},
{"type":"Feature","geometry":{"type":"Polygon","coordinates":[[[128.06582,34.80586],[128.03799,34.87861],[127.96563,34.89302],[127.91543,34.921],[127.83223,34.87451],[127.83828,34.81333],[127.87344,34.73496],[127.89688,34.7355],[127.9418,34.76626],[127.98398,34.70322],[128.05469,34.70806],[128.06582,34.80586]]]},"properties":{"scalerank":0,"featurecla":"Land","min_zoom":3}},
{"type":"Feature","geometry":{"type":"Polygon","coordinates":[[[127.79902,34.61504],[127.78711,34.68213],[127.73731,34.63091],[127.78779,34.58408],[127.79902,34.61504]]]},"properties":{"scalerank":0,"featurecla":"Land","min_zoom":4}},
{"type":"Feature","geometry":{"type":"Polygon","coordinates":[[[126.32695,33.22363],[126.58174,33.23833],[126.70918,33.27168],[126.87285,33.34116],[126.90537,33.38237],[126.93125,33.44385],[126.90117,33.51514],[126.75986,33.55322],[126.69551,33.54932],[126.3377,33.4604],[126.19941,33.36807],[126.16563,33.31201],[126.17871,33.28257],[126.229,33.22524],[126.24023,33.21484],[126.28203,33.20151],[126.32695,33.22363]]]},"properties":{"scalerank":0,"featurecla":"Land","min_zoom":2}},
{"type":"Feature","geometry":{"type":"Polygon","coordinates":[[[126.23369,34.37051],[126.33545,34.42642],[126.37988,34.49795],[126.34385,34.54492],[126.24746,34.56333],[126.22705,34.53272],[126.12285,34.44395],[126.10859,34.39873],[126.13379,34.3896],[126.16973,34.35518],[126.23369,34.37051]]]},"properties":{"scalerank":0,"featurecla":"Land","min_zoom":3}},
{"type":"Feature","geometry":{"type":"Polygon","coordinates":[[[126.5207,37.73682],[126.49356,37.78257],[126.41162,37.82266],[126.36934,37.77202],[126.40723,37.64941],[126.42334,37.62363],[126.46084,37.61035],[126.51602,37.60469],[126.5207,37.73682]]]},"properties":{"scalerank":0,"featurecla":"Land","min_zoom":3}},
{"type":"Feature","geometry":{"type":"Polygon","coordinates":[[[121.8627,31.49229],[121.84365,31.52637],[121.8083,31.55215],[121.57656,31.63731],[121.54229,31.67393],[121.4918,31.69365],[121.46416,31.75645],[121.33897,31.79736],[121.21113,31.80537],[121.22686,31.75811],[121.33643,31.64375],[121.51992,31.54961],[121.78047,31.46377],[121.8627,31.49229]]]},"properties":{"scalerank":0,"featurecla":"Land","min_zoom":2}},
{"type":"Feature","geometry":{"type":"Polygon","coordinates":[[[122.2959,29.96343],[122.32227,30.0314],[122.28447,30.06802],[122.11055,30.13975],[121.96943,30.14312],[121.97783,30.06382],[122.02402,30.01333],[122.15781,30.00127],[122.28154,29.94385],[122.2959,29.96343]]]},"properties":{"scalerank":0,"featurecla":"Land","min_zoom":3}},
{"type":"Feature","geometry":{"type":"Polygon","coordinates":[[[122.17256,29.679],[122.16504,29.70078],[122.11963,29.78223],[122.06231,29.77275],[122.04268,29.73594],[122.08379,29.72534],[122.16904,29.66025],[122.17256,29.679]]]},"properties":{"scalerank":0,"featurecla":"Land","min_zoom":4}},
{"type":"Feature","geometry":{"type":"Polygon","coordinates":[[[122.40391,29.89238],[122.40156,29.95024],[122.35098,29.95523],[122.33184,29.93496],[122.36758,29.85269],[122.39404,29.84609],[122.40391,29.89238]]]},"properties":{"scalerank":0,"featurecla":"Land","min_zoom":4}},
{"type":"Feature","geometry":{"type":"Polygon","coordinates":[[[129.71797,31.65713],[129.79365,31.74248],[129.78731,31.78711],[129.70684,31.71826],[129.68682,31.63965],[129.71797,31.65713]]]},"properties":{"scalerank":0,"featurecla":"Land","min_zoom":4}},
{"type":"Feature","geometry":{"type":"Polygon","coordinates":[[[126.41758,36.49258],[126.38662,36.57114],[126.31856,36.61255],[126.3375,36.47056],[126.40381,36.42788],[126.41758,36.49258]]]},"properties":{"scalerank":0,"featurecla":"Land","min_zoom":3}},
{"type":"Feature","geometry":{"type":"Polygon","coordinates":[[[124.90527,39.53628],[124.93457,39.60781],[124.88955,39.6021],[124.84609,39.55889],[124.84893,39.50757],[124.90527,39.53628]]]},"properties":{"scalerank":0,"featurecla":"Land","min_zoom":4}},
{"type":"Feature","geometry":{"type":"Polygon","coordinates":[[[121.25137,28.08643],[121.25098,28.14522],[121.23438,28.1813],[121.20547,28.2044],[121.13398,28.13525],[121.13154,28.0626],[121.16426,28.0625],[121.25137,28.08643]]]},"properties":{"scalerank":0,"featurecla":"Land","min_zoom":3}},
{"type":"Feature","geometry":{"type":"Polygon","coordinates":[[[126.17197,34.73115],[126.16856,34.82969],[126.07842,34.91484],[126.00752,34.86748],[126.05205,34.83755],[126.07061,34.78306],[126.11523,34.71421],[126.15879,34.70698],[126.17197,34.73115]]]},"properties":{"scalerank":0,"featurecla":"Land","min_zoom":3}},
{"type":"Feature","geometry":{"type":"Polygon","coordinates":[[[130.91602,37.47847],[130.93428,37.52974],[130.90371,37.55371],[130.83838,37.53721],[130.81025,37.50991],[130.8168,37.47847],[130.87061,37.44873],[130.91602,37.47847]]]},"properties":{"scalerank":0,"featurecla":"Land","min_zoom":4}},
{"type":"Feature","geometry":{"type":"Polygon","coordinates":[[[131,42.64164],[131,48],[104,48],[104,27],[120.21422,27],[120.27871,27.09707],[120.38457,27.15552],[120.46865,27.25625],[120.53984,27.31836],[120.60752,27.4124],[120.6291,27.48213],[120.5875,27.58076],[120.66484,27.63945],[120.66133,27.68789],[120.68516,27.74458],[120.83301,27.89146],[120.83301,27.93779],[120.76348,27.97744],[120.74766,28.00996],[120.81299,28.01338],[120.89248,28.00391],[120.95859,28.03701],[121.03545,28.15728],[121.09844,28.29053],[121.1457,28.32666],[121.2168,28.34619],[121.27227,28.22212],[121.35459,28.22988],[121.50996,28.32427],[121.60996,28.29214],[121.60205,28.3666],[121.53809,28.52109],[121.4752,28.64141],[121.51914,28.71367],[121.59033,28.73481],[121.63008,28.76792],[121.6625,28.85142],[121.54004,28.93189],[121.64102,28.91592],[121.67969,28.95313],[121.66494,29.0106],[121.5209,29.11846],[121.44766,29.13135],[121.48711,29.19316],[121.53369,29.23672],[121.65596,29.23613],[121.71748,29.25635],[121.79082,29.22568],[121.85352,29.12891],[121.91777,29.13501],[121.96836,29.49063],[121.94121,29.60591],[121.88799,29.62778],[121.82188,29.60464],[121.69043,29.51099],[121.50625,29.48457],[121.57461,29.53701],[121.67656,29.58379],[121.90576,29.77969],[122.08291,29.87036],[122.01729,29.8877],[121.94434,29.89409],[121.81231,29.95215],[121.67793,29.9791],[121.43272,30.22666],[121.34063,30.28237],[121.25801,30.3041],[121.15938,30.30176],[120.90449,30.16065],[120.6334,30.13315],[120.49453,30.30308],[120.35254,30.24741],[120.26055,30.26304],[120.22852,30.24956],[120.19463,30.24131],[120.24551,30.28355],[120.44981,30.38784],[120.62998,30.39087],[120.82148,30.35464],[120.89746,30.39263],[120.93828,30.46973],[120.99766,30.55825],[121.30996,30.69971],[121.41895,30.7898],[121.52754,30.84097],[121.6752,30.86377],[121.76943,30.87036],[121.87793,30.91699],[121.83447,31.06162],[121.78594,31.16289],[121.66065,31.31973],[121.35098,31.48535],[121.20488,31.62808],[121.05537,31.71943],[120.9375,31.7502],[120.78779,31.81978],[120.75225,31.92285],[120.71553,31.98374],[120.49717,32.01982],[120.34746,31.9521],[120.1916,31.90635],[120.03594,31.93628],[120.07393,31.96025],[120.09873,31.97598],[120.18408,31.96616],[120.52012,32.10586],[120.66055,32.08106],[120.7917,32.03174],[120.97354,31.86939],[121.1458,31.84233],[121.26641,31.8627],[121.35195,31.85879],[121.68086,31.71216],[121.76357,31.69951],[121.86631,31.70356],[121.85635,31.81646],[121.83242,31.89976],[121.75107,31.99287],[121.67422,32.05103],[121.49053,32.12109],[121.45078,32.15332],[121.40391,32.20625],[121.40098,32.37192],[121.3417,32.42505],[121.29336,32.45732],[120.98994,32.56704],[120.85322,32.66138],[120.85303,32.76411],[120.89736,32.84321],[120.87109,33.0165],[120.73447,33.23662],[120.61563,33.49053],[120.50479,33.63818],[120.49981,33.71646],[120.42568,33.86631],[120.32266,34.16899],[120.2667,34.27402],[120.20147,34.32568],[119.96367,34.4478],[119.76973,34.49619],[119.58291,34.58223],[119.42676,34.71416],[119.35137,34.74941],[119.20098,34.74844],[119.16533,34.84883],[119.21582,35.01177],[119.35283,35.11382],[119.42969,35.30142],[119.52647,35.35859],[119.6084,35.46987],[119.71973,35.58872],[119.81055,35.61773],[119.86621,35.64365],[119.91172,35.69321],[119.97871,35.74023],[120.02744,35.79937],[120.05469,35.86113],[120.21904,35.93491],[120.28477,35.98442],[120.26475,36.00723],[120.18145,36.01748],[120.09414,36.1189],[120.11699,36.15029],[120.1833,36.20244],[120.27012,36.22617],[120.32773,36.22817],[120.34346,36.18945],[120.33027,36.11011],[120.34824,36.0792],[120.39307,36.05386],[120.51934,36.10869],[120.63789,36.12993],[120.68096,36.16836],[120.68223,36.34072],[120.71152,36.41328],[120.77617,36.4563],[120.84707,36.42607],[120.8958,36.44414],[120.90498,36.4853],[120.88262,36.53892],[120.79668,36.60723],[120.81084,36.63281],[120.87852,36.63516],[120.98994,36.59795],[121.05381,36.61138],[121.14404,36.66045],[121.41309,36.73838],[121.66963,36.83638],[121.93272,36.95947],[122.04951,36.97075],[122.1624,36.95864],[122.20322,36.9272],[122.21973,36.87954],[122.24229,36.84985],[122.27422,36.83384],[122.34092,36.83223],[122.45703,36.91514],[122.51973,36.94683],[122.52344,37.00264],[122.4874,37.02227],[122.44668,37.06812],[122.51553,37.13784],[122.58731,37.1811],[122.57334,37.31792],[122.66699,37.40283],[122.60234,37.42642],[122.49326,37.40796],[122.3377,37.40527],[122.16914,37.45615],[122.10957,37.52231],[122.05664,37.52891],[122.01016,37.49575],[121.96484,37.44531],[121.81641,37.45664],[121.64023,37.46035],[121.50527,37.51504],[121.38809,37.57896],[121.21953,37.60015],[121.04902,37.7252],[120.75,37.83394],[120.37012,37.70103],[120.28467,37.69209],[120.25723,37.679],[120.28711,37.65649],[120.31152,37.62271],[120.15586,37.49502],[119.88291,37.35083],[119.87998,37.2958],[119.8875,37.25337],[119.76055,37.15508],[119.4499,37.12476],[119.2874,37.13828],[119.11182,37.20117],[118.99815,37.2771],[118.95264,37.33115],[118.95488,37.49409],[118.99082,37.64136],[119.0335,37.66104],[119.08916,37.70073],[119.07031,37.74858],[119.03848,37.77651],[119.03565,37.80918],[119.02754,37.904],[118.94004,38.04277],[118.8,38.12666],[118.66709,38.12637],[118.54326,38.09492],[118.01494,38.1834],[117.7667,38.31167],[117.65606,38.42422],[117.55781,38.62515],[117.55381,38.69146],[117.6167,38.85288],[117.78467,39.13447],[117.86572,39.19126],[118.04092,39.22676],[118.14785,39.19507],[118.29785,39.06709],[118.47197,39.11802],[118.62637,39.17686],[118.75244,39.1605],[118.82647,39.17212],[118.91231,39.16641],[118.97695,39.18257],[119.04014,39.22236],[119.22461,39.40806],[119.26133,39.56089],[119.32236,39.66162],[119.39111,39.75249],[119.59111,39.90264],[119.85039,39.98745],[120.36895,40.20386],[120.4791,40.23096],[120.7707,40.58906],[120.84131,40.64922],[120.92227,40.6831],[121.00293,40.74912],[121.08594,40.8416],[121.17451,40.90127],[121.53711,40.87842],[121.59893,40.84341],[121.7293,40.84614],[121.76563,40.87588],[121.80859,40.96851],[121.83486,40.97427],[121.85879,40.84209],[122.14043,40.68818],[122.17871,40.60273],[122.275,40.54185],[122.26387,40.5002],[122.20332,40.39605],[122.19092,40.35825],[121.98281,40.13584],[121.86895,40.04639],[121.80098,39.95054],[121.51738,39.84482],[121.47422,39.75488],[121.51426,39.68525],[121.51758,39.63897],[121.46953,39.64014],[121.40645,39.62124],[121.26748,39.54468],[121.28633,39.51943],[121.29981,39.4522],[121.27549,39.38477],[121.35566,39.37681],[121.5125,39.37485],[121.78545,39.40083],[121.81846,39.38652],[121.75781,39.34756],[121.66455,39.26875],[121.62764,39.22017],[121.67988,39.10869],[121.26328,38.96025],[121.18828,38.94668],[121.10674,38.9208],[121.12168,38.81328],[121.16357,38.73164],[121.20742,38.74351],[121.23633,38.76694],[121.32012,38.8082],[121.51719,38.83076],[121.6499,38.86509],[121.67041,38.8918],[121.63281,38.95483],[121.67725,39.00342],[121.74482,39.00967],[121.80518,38.99141],[121.86436,38.99648],[121.92266,39.03652],[121.98232,39.05317],[122.04766,39.0938],[122.1209,39.1519],[122.225,39.26733],[122.33486,39.36611],[122.84004,39.60083],[122.96094,39.61992],[123.03223,39.67354],[123.22656,39.68662],[123.26895,39.7269],[123.34815,39.76294],[123.49004,39.76787],[123.58066,39.78613],[123.61123,39.84082],[123.65088,39.88159],[123.76016,39.82241],[124.10576,39.84102],[124.26748,39.92417],[124.35,40.01157],[124.36211,40.00405],[124.3751,39.99614],[124.34863,39.90689],[124.40381,39.86553],[124.55742,39.79058],[124.60762,39.71694],[124.63828,39.61509],[124.69922,39.63237],[124.73223,39.6522],[124.73887,39.7415],[124.77529,39.75806],[124.86787,39.70181],[125.1001,39.59033],[125.18008,39.5835],[125.36084,39.52661],[125.37363,39.42764],[125.41318,39.32627],[125.40967,39.28838],[125.15732,38.87153],[125.16885,38.80552],[125.29893,38.74297],[125.42422,38.74688],[125.48867,38.72778],[125.55449,38.68623],[125.4918,38.67612],[125.41533,38.68042],[125.30967,38.66538],[125.06738,38.55674],[124.97373,38.48013],[124.88057,38.34165],[124.88272,38.29497],[124.87451,38.2334],[124.69092,38.1292],[124.77949,38.10151],[124.90703,38.11265],[124.99502,38.07783],[125.1626,38.09365],[125.20674,38.08154],[125.24668,38.05684],[125.19316,38.03779],[124.98877,37.93144],[125.02676,37.92261],[125.10195,37.88208],[125.31074,37.84351],[125.36484,37.74824],[125.35781,37.72481],[125.40664,37.71904],[125.44932,37.73022],[125.58154,37.81504],[125.67617,37.91772],[125.69502,37.96269],[125.76914,37.98535],[125.9417,37.87368],[126.05029,37.86982],[126.1167,37.74292],[126.16104,37.76372],[126.20313,37.82852],[126.36992,37.87837],[126.57275,37.79683],[126.62324,37.79019],[126.63389,37.78184],[126.6207,37.75547],[126.57773,37.74473],[126.56338,37.7165],[126.58018,37.65376],[126.60762,37.61743],[126.65684,37.55117],[126.65029,37.44712],[126.69619,37.41069],[126.79053,37.29492],[126.74639,37.19356],[126.77607,37.1582],[126.7874,37.10273],[126.86895,36.97573],[126.95977,36.95762],[126.97686,36.9394],[126.95801,36.90615],[126.8791,36.86206],[126.87207,36.82446],[126.83877,36.84609],[126.78447,36.94844],[126.68672,36.96035],[126.57773,37.01958],[126.48701,37.00747],[126.42871,36.96904],[126.35156,36.9582],[126.21719,36.87095],[126.16055,36.77192],[126.18086,36.6916],[126.23066,36.68926],[126.38877,36.65117],[126.43301,36.67803],[126.4877,36.6938],[126.50664,36.58565],[126.54824,36.47764],[126.55195,36.42969],[126.54424,36.34121],[126.55723,36.23584],[126.54043,36.16616],[126.59707,36.10503],[126.68232,36.03794],[126.69346,36.01416],[126.66367,35.97451],[126.64746,35.92241],[126.71963,35.8979],[126.75303,35.87197],[126.71738,35.76885],[126.60156,35.71421],[126.5419,35.66934],[126.48848,35.64707],[126.48652,35.60635],[126.56494,35.58975],[126.61406,35.571],[126.58223,35.53447],[126.49277,35.50127],[126.46045,35.45562],[126.3959,35.3144],[126.36055,35.2169],[126.29111,35.15415],[126.32744,35.04512],[126.39785,34.93281],[126.4207,34.82339],[126.47852,34.81035],[126.54795,34.83677],[126.59336,34.82437],[126.53857,34.77866],[126.47285,34.75635],[126.50498,34.73755],[126.52451,34.6979],[126.42559,34.69458],[126.30107,34.71997],[126.26445,34.67324],[126.33262,34.58965],[126.48174,34.49394],[126.50645,34.42837],[126.5083,34.35063],[126.53145,34.31426],[126.58438,34.31753],[126.61084,34.40352],[126.75479,34.51187],[126.79648,34.49429],[126.82627,34.45107],[126.89746,34.43887],[127.03076,34.60689],[127.24707,34.75513],[127.26865,34.72036],[127.26055,34.66167],[127.19492,34.60503],[127.17344,34.54614],[127.32461,34.46328],[127.38057,34.50064],[127.40117,34.55254],[127.4791,34.62524],[127.42344,34.68848],[127.38965,34.74302],[127.4043,34.8231],[127.47695,34.84429],[127.52363,34.84009],[127.56543,34.76592],[127.63242,34.69023],[127.71543,34.72104],[127.74219,34.78257],[127.6625,34.84341],[127.63936,34.8897],[127.65908,34.92637],[127.71484,34.95469],[127.87324,34.96631],[127.97676,35.0187],[128.03623,35.02197],[128.09453,34.93359],[128.15234,34.91587],[128.27598,34.91099],[128.3877,34.8751],[128.44395,34.87036],[128.44766,34.93208],[128.41885,35.01567],[128.4581,35.06943],[128.51094,35.10098],[128.64258,35.11958],[128.7957,35.0939],[128.98008,35.10151],[129.07676,35.12271],[129.21416,35.18184],[129.329,35.33276],[129.41914,35.49785],[129.48545,35.6874],[129.56172,35.94766],[129.57285,36.05054],[129.50977,36.0376],[129.4583,36.00645],[129.42578,36.0188],[129.40352,36.05215],[129.40244,36.13765],[129.39131,36.20215],[129.39258,36.32271],[129.42715,36.3855],[129.44502,36.4707],[129.43301,36.63662],[129.47344,36.7419],[129.42617,36.92554],[129.41826,37.05903],[129.33516,37.27456],[129.05156,37.67764],[128.85244,37.88706],[128.61885,38.17607],[128.37461,38.62344],[128.32949,38.68091],[128.24941,38.74522],[128.1625,38.78613],[128.12305,38.81641],[127.97168,38.898],[127.78613,39.08413],[127.69893,39.12505],[127.58096,39.14326],[127.49697,39.17949],[127.39453,39.20791],[127.3835,39.29614],[127.42227,39.37358],[127.45742,39.40098],[127.52285,39.37739],[127.54893,39.46108],[127.54727,39.56279],[127.52744,39.6957],[127.56816,39.78198],[127.86709,39.89595],[127.9666,39.9956],[128.10635,40.03257],[128.30449,40.03594],[128.39297,40.08897],[128.51123,40.13023],[128.61074,40.1979],[128.70137,40.31753],[128.84297,40.3585],[128.94521,40.42788],[129.10977,40.49106],[129.24512,40.66104],[129.34111,40.72632],[129.70869,40.85732],[129.74199,40.93227],[129.71211,41.12368],[129.76582,41.30386],[129.75898,41.3915],[129.68242,41.49434],[129.68633,41.59497],[129.75635,41.71226],[129.87637,41.80552],[129.92822,41.89673],[130.00732,41.99116],[130.06826,42.04575],[130.17988,42.09697],[130.23574,42.1832],[130.31475,42.21411],[130.45752,42.30171],[130.56924,42.2917],[130.63652,42.27485],[130.68731,42.30254],[130.72988,42.32578],[130.83418,42.52295],[130.70938,42.6564],[130.75615,42.67329],[130.9457,42.63394],[131,42.64164]]]},"properties":{"scalerank":0,"featurecla":"Land","min_zoom":0}},
{"type":"Feature","geometry":{"type":"Polygon","coordinates":[[[124.74453,37.98062],[124.7166,37.98877],[124.66113,37.97344],[124.63594,37.98062],[124.62539,37.94521],[124.65586,37.92476],[124.69668,37.92017],[124.71709,37.93286],[124.73984,37.94722],[124.75371,37.95518],[124.75547,37.96982],[124.74453,37.98062]]]},"properties":{"scalerank":0,"featurecla":"Land","min_zoom":4}}
]}