{"type":"FeatureCollection", "features": [
{"type":"Feature","geometry":{"type":"LineString","coordinates":[[115.98189,29.2792],[116.0344,29.31919],[116.08829,29.43722],[116.19759,29.75139]]},"properties":{"scalerank":6,"featurecla":"Lake Centerline","name":"Gan","note":null,"min_zoom":5,"name_alt":null,"name_en":"Gan","min_label":6}},
{"type":"Feature","geometry":{"type":"LineString","coordinates":[[111.47767,32.56781],[111.00008,32.74069]]},"properties":{"scalerank":6,"featurecla":"Lake Centerline","name":"Han","note":null,"min_zoom":5,"name_alt":null,"name_en":"Han","min_label":6}},
{"type":"Feature","geometry":{"type":"MultiLineString","coordinates":[[[112.90487,29.03138],[112.80116,28.92723],[112.69264,28.87431],[112.54474,28.83793],[112.35131,28.86098],[111.99289,28.98472]],[[112.99355,29.14745],[113.07075,29.38919]]]},"properties":{"scalerank":6,"featurecla":"Lake Centerline","name":"Yuan","note":null,"min_zoom":5,"name_alt":null,"name_en":"Yuan","min_label":6}},
{"type":"Feature","geometry":{"type":"LineString","coordinates":[[131,47.69267],[130.96196,47.70931],[130.93287,47.7598],[130.9154,47.84292],[130.84863,47.92943],[130.75743,48]]},"properties":{"scalerank":3,"featurecla":"River","name":"Amur","note":null,"min_zoom":3,"name_alt":null,"name_en":"Amur","min_label":4}},
{"type":"Feature","geometry":{"type":"MultiLineString","coordinates":[[[104,28.62445],[104.09373,28.62066],[104.33547,28.6359],[104.49216,28.67872],[104.56368,28.74915],[104.62036,28.77936]],[[104.62036,28.77936],[104.65049,28.79537],[104.75276,28.81744],[104.83343,28.81558],[104.89254,28.78979],[104.93947,28.79305],[104.98535,28.79047],[105.01161,28.77768],[105.04266,28.74574],[105.09134,28.72437],[105.12798,28.73215],[105.15258,28.76905],[105.20865,28.78649],[105.29619,28.78452],[105.35102,28.80506],[105.37303,28.84816],[105.42378,28.87708],[105.50305,28.89183],[105.54708,28.91467],[105.57653,28.92185],[105.61948,28.90589],[105.67327,28.89767],[105.74128,28.91803],[105.78469,28.90609],[105.80339,28.86175],[105.82892,28.83871],[105.86106,28.83695],[105.88158,28.85219],[105.89036,28.88434],[105.87574,28.91472],[105.83781,28.94325],[105.8343,28.97999],[105.8652,29.02484],[105.94576,29.0581],[106.07588,29.0797],[106.14632,29.1252],[106.15696,29.19465],[106.25298,29.27408],[106.43416,29.36348],[106.51813,29.42622],[106.5048,29.46239],[106.52273,29.51647],[106.57182,29.5885],[106.6175,29.61155],[106.65967,29.58561],[106.72111,29.57783],[106.80183,29.58817],[106.89428,29.64997],[106.99836,29.76325],[107.08368,29.78707],[107.15013,29.72149],[107.23731,29.6986],[107.34511,29.71834],[107.4188,29.77095],[107.45828,29.85637],[107.53011,29.89048],[107.63419,29.87327],[107.84172,30.04339],[108.30815,30.57953],[108.39125,30.69185],[108.41832,30.75544],[108.41724,30.80768],[108.44308,30.85336],[108.49584,30.89243],[108.7567,30.93648],[109.46002,31.01002],[109.54549,31.03449],[109.5981,31.03126],[109.64636,31.0085],[109.74155,31.0162],[109.88387,31.05436],[109.98412,31.06136],[110.04251,31.03712],[110.14266,31.03185],[110.28467,31.0455],[110.47365,31.01966],[110.82758,30.92171],[110.97093,30.85223],[111.04504,30.83491],[111.09775,30.8467],[111.15893,30.82856],[111.22849,30.78055],[111.30859,30.67322],[111.39923,30.50656],[111.46527,30.41773],[111.50671,30.40675],[111.52046,30.38435],[111.50651,30.3506],[111.5123,30.3182],[111.53782,30.2872],[111.57079,30.28722],[111.61229,30.31089],[111.73559,30.38933],[111.81827,30.426],[111.86034,30.42083],[111.91051,30.38667],[111.9687,30.32342],[112.0581,30.29273],[112.17877,30.29456],[112.24693,30.27751],[112.26274,30.24157],[112.25209,30.19077],[112.21499,30.12514],[112.25184,30.06767],[112.36253,30.01838],[112.40557,29.92691],[112.38098,29.79332],[112.40971,29.7385],[112.49187,29.76242],[112.54365,29.79234],[112.56939,29.78415],[112.59342,29.76568],[112.60448,29.75245],[112.62871,29.75245],[112.63197,29.76493],[112.65703,29.78798],[112.70654,29.7994],[112.73894,29.78552],[112.73232,29.77229],[112.74467,29.75369],[112.78188,29.74395],[112.81883,29.73741],[112.88461,29.76028],[112.94182,29.74025],[112.9551,29.69072],[112.93991,29.66858],[112.91696,29.59964],[112.9241,29.52998],[112.95061,29.50771],[112.98859,29.5052],[113.01654,29.49438],[113.03096,29.48084],[113.05267,29.46908],[113.09685,29.45645],[113.1277,29.46278]]]},"properties":{"scalerank":1,"featurecla":"River","name":"Chang Jiang","note":null,"min_zoom":2,"name_alt":"Yangtze","name_en":"Yangtze","min_label":3}},
{"type":"Feature","geometry":{"type":"LineString","coordinates":[[115.02093,27],[115.02138,27.03194],[114.99027,27.083],[115.00852,27.13847],[115.07601,27.19834],[115.09823,27.28407],[115.07507,27.39569],[115.13027,27.51238],[115.26369,27.63418],[115.36865,27.78528],[115.44503,27.96579],[115.57701,28.10994],[115.76459,28.21779],[115.84826,28.3167],[115.81777,28.45168],[115.81637,28.585],[115.86877,28.71561],[115.9745,28.888],[116.016,29.05042],[115.98189,29.2792]]},"properties":{"scalerank":6,"featurecla":"River","name":"Gan","note":null,"min_zoom":5,"name_alt":null,"name_en":"Gan","min_label":6}},
{"type":"Feature","geometry":{"type":"MultiLineString","coordinates":[[[111.47767,32.56781],[111.60221,32.46758],[111.64216,32.40743],[111.63895,32.35399],[111.68479,32.26511],[111.77967,32.14088],[111.91858,32.06456],[112.10141,32.03618],[112.18895,31.9658],[112.18119,31.85346],[112.22543,31.77108],[112.32165,31.71868],[112.39048,31.65693],[112.43172,31.58582],[112.4404,31.49609],[112.41653,31.3877],[112.43358,31.30775],[112.52061,31.2305],[112.55585,31.21918],[112.57177,31.18308],[112.58014,31.11846],[112.56856,31.09635],[112.53947,31.07748],[112.52309,31.03904],[112.55585,30.93878],[112.59884,30.87481],[112.63373,30.84791],[112.63202,30.81536],[112.62194,30.78655],[112.60484,30.71298],[112.62727,30.67017],[112.68897,30.65808],[112.71305,30.62702],[112.70736,30.60118],[112.71594,30.57547],[112.75367,30.57204],[112.79718,30.56413],[112.84885,30.51876],[112.88565,30.51535],[112.97298,30.53093],[113.07261,30.47496],[113.20966,30.43044],[113.38091,30.40683],[113.51171,30.44285],[113.60193,30.53845],[113.67237,30.59663],[113.7688,30.62609],[113.80146,30.62234],[113.83799,30.63002],[113.86047,30.64444],[113.90047,30.63668],[113.92569,30.64433],[113.93856,30.65983],[113.96414,30.65741],[114.0094,30.61451],[114.09643,30.58635],[114.28846,30.57209]],[[106.3985,33.06772],[106.67621,33.14222],[106.8317,33.1341],[106.93102,33.10168],[107.02601,33.04222],[107.18884,33.0632],[107.41962,33.16462],[107.59605,33.20045],[107.71811,33.17074],[107.80658,33.17779],[107.86136,33.22164],[107.90549,33.2343],[107.93897,33.2157],[107.95597,33.17503],[107.95649,33.11219],[108.03633,33.06201],[108.19549,33.02444],[108.26567,32.96411],[108.24702,32.88099],[108.28769,32.81069],[108.38773,32.75322],[108.41078,32.73413],[108.41078,32.70917],[108.42514,32.66545],[108.51217,32.54977],[108.65092,32.50623],[108.71784,32.52758],[108.75908,32.59928],[108.78233,32.61351],[108.79773,32.61739],[108.81861,32.60881],[108.83577,32.60251],[108.85473,32.60757],[108.92217,32.63589],[109.06325,32.73459],[109.17497,32.77493],[109.25734,32.75686],[109.32473,32.778],[109.37723,32.83833],[109.48741,32.88554],[109.71551,32.93406],[109.73928,32.93675],[109.76677,32.93406],[110.14049,32.8249],[110.30513,32.80694],[110.36684,32.84099],[110.47458,32.84342],[110.62827,32.81423],[110.71534,32.8151],[110.7358,32.84616],[110.80784,32.84802],[110.93135,32.82068],[110.9669,32.78766],[110.96861,32.77108],[111.00008,32.74069]]]},"properties":{"scalerank":6,"featurecla":"River","name":"Han","note":null,"min_zoom":5,"name_alt":null,"name_en":"Han","min_label":6}},
{"type":"Feature","geometry":{"type":"LineString","coordinates":[[104,36.07913],[104.03063,36.10446],[104.02267,36.1563],[104.07223,36.22877],[104.1792,36.32184],[104.35211,36.4278],[104.59096,36.54661],[104.71349,36.62758],[104.71979,36.67073],[104.69039,36.7275],[104.62517,36.79794],[104.52843,36.85008],[104.40007,36.8839],[104.32658,36.94552],[104.30788,37.03492],[104.31387,37.09345],[104.35273,37.17388],[104.44606,37.19698],[104.52027,37.24132],[104.57556,37.3069],[104.69163,37.3586],[104.95693,37.41539],[104.99786,37.46149],[105.15196,37.48278],[105.43277,37.49471],[105.64898,37.522],[105.8004,37.56474],[105.9053,37.6608],[105.96359,37.81025],[106.03687,37.9157],[106.12503,37.97709],[106.19639,38.06414],[106.25086,38.1769],[106.33783,38.2817],[106.4572,38.37849],[106.531,38.49778],[106.55911,38.63953],[106.63993,38.7797],[106.77357,38.9183],[106.85067,39.01684],[106.87134,39.07529],[106.8487,39.18311],[106.78287,39.34026],[106.75868,39.48278],[106.77625,39.61066],[106.76819,39.76005],[106.71776,40.01632],[107.04316,40.28612],[107.14915,40.39552],[107.14419,40.43446],[107.17396,40.49988],[107.23855,40.59184],[107.37973,40.67121],[107.5977,40.73803],[107.71955,40.79345],[107.7455,40.83748],[107.86213,40.86453],[108.06956,40.87466],[108.19017,40.86327],[108.22397,40.83035],[108.29006,40.81467],[108.38856,40.81622],[108.47599,40.77813],[108.55258,40.70041],[108.65061,40.63199],[108.77019,40.57287],[108.88414,40.54672],[108.99245,40.55355],[109.13415,40.53476],[109.30912,40.49037],[109.44958,40.48882],[109.55541,40.53011],[109.63458,40.53189],[109.68719,40.49412],[109.8357,40.49133],[110.08024,40.52352],[110.30338,40.48404],[110.50522,40.37294],[110.67452,40.30186],[110.81146,40.27082],[110.91853,40.26571],[110.996,40.28648],[111.12534,40.23463],[111.30673,40.11014],[111.40688,40.01255],[111.42579,39.9418],[111.41638,39.86744],[111.37845,39.78946],[111.38548,39.71789],[111.43726,39.65272],[111.43302,39.57622],[111.37256,39.48829],[111.28425,39.42953],[111.21226,39.4138],[111.16813,39.39992],[111.15583,39.37005],[111.155,39.34744],[111.19226,39.29657],[111.19934,39.23957],[111.14488,39.12474],[111.08142,39.04405],[111.00886,38.99749],[110.98029,38.95628],[110.99569,38.92042],[110.97042,38.8322],[110.90448,38.69157],[110.87786,38.59979],[110.89058,38.55685],[110.79761,38.44303],[110.59897,38.25839],[110.50347,38.11326],[110.51101,38.00768],[110.58475,37.88074],[110.72459,37.73248],[110.78242,37.61378],[110.75813,37.52474],[110.71875,37.46469],[110.66408,37.43363],[110.64382,37.38415],[110.65777,37.31617],[110.60987,37.21701],[110.50001,37.08668],[110.42709,37.02058],[110.39102,37.01872],[110.3843,37.00513],[110.40673,36.97986],[110.40766,36.91917],[110.38709,36.82313],[110.39283,36.76292],[110.42497,36.73861],[110.42823,36.71704],[110.4026,36.69823],[110.41696,36.64774],[110.47143,36.56557],[110.48569,36.42881],[110.45985,36.23748],[110.49014,36.00566],[110.57643,35.73332],[110.57943,35.5337],[110.45872,35.34317],[110.36611,35.23423],[110.3163,35.1346],[110.27837,35.00799],[110.26204,34.86785],[110.26989,34.63727],[110.46523,34.59701],[110.6186,34.60419],[110.79528,34.6454],[110.89032,34.68259],[110.96995,34.7245],[111.02695,34.7462],[111.10126,34.79483],[111.24316,34.8302],[111.45266,34.85227],[111.58867,34.89942],[111.65141,34.97172],[111.73642,35.0299],[111.8438,35.07409],[112.11794,35.02158],[112.55874,34.8725],[112.85681,34.80901],[113.01215,34.83118],[113.15571,34.8748],[113.28769,34.93986],[113.39869,34.97417],[113.48897,34.97774],[113.61749,34.95373],[113.7844,34.90221],[113.90031,34.89459],[113.96532,34.93094],[114.15627,34.93606],[114.47315,34.90994],[114.6814,34.92761],[114.79819,34.97774],[114.83085,35.01978]]},"properties":{"scalerank":3,"featurecla":"River","name":"Huang","note":null,"min_zoom":3,"name_alt":null,"name_en":"Huang","min_label":4}},
{"type":"Feature","geometry":{"type":"LineString","coordinates":[[114.83767,35.01978],[114.86237,35.06117],[114.86558,35.1446],[114.90547,35.22855],[115.01389,35.32952],[115.13605,35.40626],[115.27207,35.45882],[115.34038,35.50264],[115.341,35.53778],[115.38198,35.59721],[115.46327,35.68092],[115.59639,35.75844],[115.78108,35.82978],[115.87089,35.88034],[115.86572,35.91006],[115.88329,35.93863],[115.9236,35.96602],[115.96618,35.9762],[116.03574,36.07103],[116.0778,36.10973],[116.11594,36.14296],[116.22715,36.20136],[116.45065,36.33851],[116.58082,36.43969],[116.59261,36.4895],[116.64407,36.56149],[116.73513,36.6557],[116.86194,36.72613],[117.02441,36.7729],[117.1505,36.86204],[117.24011,36.99361],[117.35178,37.08187],[117.48542,37.12675],[117.57094,37.17546],[117.60836,37.22801],[117.6929,37.25612],[117.82467,37.25985],[117.96968,37.29008],[118.12791,37.34687],[118.23752,37.43053],[118.29839,37.54107],[118.38516,37.60391],[118.49781,37.61894],[118.64488,37.67752],[118.82627,37.77958],[118.94605,37.82361],[119.03566,37.80917]]},"properties":{"scalerank":3,"featurecla":"River","name":"Huang","note":null,"min_zoom":3,"name_alt":"Yellow","name_en":"Yellow","min_label":4}},
{"type":"Feature","geometry":{"type":"LineString","coordinates":[[123.55394,43.4835],[123.61378,43.39854],[123.60406,43.28955],[123.54474,43.12822],[123.53378,43.01944],[123.5713,42.96327],[123.58267,42.87687],[123.5681,42.76034],[123.61109,42.66016],[123.71186,42.57639],[123.77356,42.50381],[123.7963,42.44247],[123.83061,42.40612],[123.77056,42.32713],[123.5127,42.20306],[123.35018,42.14942],[123.28289,42.16611],[123.17701,42.14461],[123.03263,42.08487],[122.89294,41.95723],[122.75807,41.76174],[122.67699,41.57917],[122.63596,41.32477],[122.45726,41.21371],[122.40062,41.1332],[122.44031,41.05455],[122.40941,41.00261],[122.32595,40.96334],[122.29422,40.89838],[122.23634,40.85159],[122.15232,40.82291],[122.14741,40.77978],[122.14038,40.68816]]},"properties":{"scalerank":6,"featurecla":"River","name":"Liao","note":null,"min_zoom":5,"name_alt":null,"name_en":"Liao","min_label":6}},
{"type":"Feature","geometry":{"type":"LineString","coordinates":[[104,29.16914],[104.14479,29.06234],[104.25052,28.99629],[104.29119,28.94821],[104.30204,28.89604],[104.38043,28.84858],[104.62036,28.77936]]},"properties":{"scalerank":6,"featurecla":"River","name":"Min","note":null,"min_zoom":5,"name_alt":null,"name_en":"Min","min_label":6}},
{"type":"Feature","geometry":{"type":"MultiLineString","coordinates":[[[124.67459,45.45046],[124.81443,45.44586],[124.87458,45.46642],[124.90176,45.51061],[124.94682,45.52275],[125.00987,45.50286],[125.05173,45.46617],[125.07229,45.41273],[125.1556,45.38912],[125.30153,45.39532],[125.39362,45.42002],[125.43196,45.46322],[125.54896,45.48818],[125.7446,45.4949],[125.88796,45.54962],[125.9788,45.65236],[126.10717,45.70171],[126.27284,45.69773],[126.41505,45.71096],[126.5337,45.74145],[126.63008,45.79651],[126.70418,45.87617],[126.8017,45.94298],[126.92262,45.99704],[127.08344,45.99763],[127.28405,45.94474],[127.41608,45.92226],[127.47943,45.93012],[127.52703,45.96071],[127.55871,46.01409],[127.6403,46.01143],[127.77166,45.95275],[127.91016,45.92159],[128.05557,45.91797],[128.18663,45.93162],[128.30321,45.96257],[128.41886,45.95911],[128.53348,45.92125],[128.64789,45.91989],[128.76189,45.95508],[128.85966,45.94826],[128.94121,45.89942],[129.03608,45.89901],[129.1445,45.94696],[129.24651,46.04174],[129.34211,46.18333],[129.43172,46.2765],[129.51533,46.32131],[129.57719,46.38177],[129.61739,46.45784],[129.70219,46.52471],[129.83149,46.58235],[129.9151,46.64894],[129.95303,46.72449],[130.00285,46.76381],[130.06455,46.76691],[130.10351,46.78446],[130.11963,46.81645],[130.17875,46.83296],[130.33192,46.83461]],[[131,47.1823],[130.80967,47.15071],[130.72234,47.07423],[130.64518,47.02739],[130.57831,47.01021],[130.53072,46.97047],[130.50251,46.90822],[130.44881,46.86711],[130.33016,46.83719]]]},"properties":{"scalerank":6,"featurecla":"River","name":"Songhua","note":null,"min_zoom":5,"name_alt":"Sungari","name_en":"Sungari","min_label":6}},
{"type":"Feature","geometry":{"type":"LineString","coordinates":[[117.20869,42.59218],[117.17231,42.61316],[117.17893,42.64546],[117.21624,42.69605],[117.22962,42.74778],[117.21365,42.82705],[117.18869,42.8856],[117.19422,42.93477],[117.22182,42.99402],[117.34718,43.06321],[117.57012,43.1423],[117.74561,43.18517],[117.87366,43.19173],[118.01577,43.22021],[118.17204,43.27059],[118.47053,43.27614],[118.91133,43.23692],[119.21973,43.22852],[119.4838,43.26211],[120.75855,43.42345]]},"properties":{"scalerank":6,"featurecla":"River","name":"Xar Moron","note":null,"min_zoom":5,"name_alt":null,"name_en":"Xar Moron","min_label":6}},
{"type":"Feature","geometry":{"type":"LineString","coordinates":[[120.75855,43.42345],[121.0591,43.50944],[121.34932,43.51685],[121.72935,43.47435],[122.0299,43.52076],[122.25107,43.65604],[122.44899,43.74759],[122.62376,43.79539],[122.76939,43.81547],[122.88612,43.80777],[123.01702,43.76508],[123.16202,43.68736],[123.2691,43.64666],[123.33824,43.64297],[123.40459,43.62752],[123.46815,43.60018],[123.51347,43.56078],[123.55394,43.4835]]},"properties":{"scalerank":6,"featurecla":"River","name":"Xiliao","note":null,"min_zoom":5,"name_alt":null,"name_en":"Xiliao","min_label":6}},
{"type":"Feature","geometry":{"type":"MultiLineString","coordinates":[[[113.1277,29.46278],[113.16635,29.48443],[113.20961,29.53784],[113.53016,29.83162],[113.69635,29.94928],[113.76032,29.93874],[113.85985,29.97233],[113.99473,30.05005],[114.01106,30.12447],[113.90884,30.19552],[113.88528,30.24616],[113.94047,30.27629],[113.98956,30.27857],[114.03245,30.25299],[114.11627,30.32838],[114.28846,30.57209]],[[114.28846,30.57209],[114.30324,30.59304],[114.39594,30.66443],[114.47201,30.66128],[114.55795,30.6033],[114.66187,30.58214],[114.78383,30.59782],[114.84093,30.56454],[114.83318,30.48227],[114.88522,30.42311],[114.99715,30.38709],[115.05782,30.3358],[115.06732,30.26929],[115.10153,30.22922],[115.16044,30.21557],[115.25181,30.1279],[115.37563,29.96623],[115.5044,29.87921],[115.63804,29.86691],[115.7509,29.82849],[115.84273,29.764],[115.98282,29.74604],[116.17113,29.77457],[116.21185,29.78516]],[[116.19759,29.75139],[116.21185,29.78516]],[[116.21185,29.78516],[116.32719,29.81518],[116.45112,29.86779],[116.54393,29.9314],[116.60563,30.00602],[116.68294,30.06137],[116.77585,30.09739],[116.8467,30.16769],[116.89553,30.27224],[116.91321,30.34921],[116.89956,30.39861],[116.97196,30.446],[117.1304,30.49137],[117.21221,30.55232],[117.21737,30.62883],[117.24662,30.67399],[117.32662,30.69477],[117.60464,30.77647],[117.72489,30.88638],[117.77997,31.05175],[117.84379,31.1242],[117.91645,31.10379],[117.96808,31.12957],[117.99877,31.20161],[118.08936,31.25522],[118.23995,31.29044],[118.31188,31.34062],[118.30542,31.40576],[118.33317,31.50986],[118.39518,31.65295],[118.51466,31.84113],[118.69175,32.07443],[118.9614,32.2032],[119.3236,32.22739],[119.5302,32.22883],[119.64306,32.23537],[119.77096,32.20695],[119.86682,32.10034],[119.9415,32.03996],[120.07394,31.96027]]]},"properties":{"scalerank":1,"featurecla":"River","name":"Yangtze","note":null,"min_zoom":2,"name_alt":null,"name_en":"Yangtze","min_label":3}},
{"type":"Feature","geometry":{"type":"MultiLineString","coordinates":[[[109.4331,27],[109.42405,27.0384],[109.44064,27.0799],[109.49366,27.07868],[109.55603,27.10711],[109.62776,27.16514],[109.66734,27.17733],[109.67489,27.14369],[109.69194,27.12832],[109.71871,27.13121],[109.73979,27.15188],[109.7553,27.19038],[109.82299,27.18883],[109.94299,27.14721],[110.05052,27.19036],[110.21682,27.42272],[110.26384,27.50372],[110.28379,27.56641],[110.27661,27.61077],[110.29904,27.65345],[110.35082,27.69441],[110.36673,27.72929],[110.34678,27.75805],[110.34834,27.79081],[110.37138,27.8275],[110.34684,27.86274],[110.27459,27.89649],[110.25067,27.92721],[110.27516,27.95491],[110.25211,27.98072],[110.18173,28.0046],[110.13548,28.03643],[110.11347,28.07614],[110.12809,28.12844],[110.17925,28.19332],[110.19475,28.24205],[110.1746,28.27461],[110.18152,28.28918],[110.21573,28.28579],[110.27206,28.32024],[110.35051,28.39256],[110.41893,28.48638],[110.47722,28.60172],[110.63307,28.69003],[110.8866,28.75135],[111.04008,28.80307],[111.09361,28.84522],[111.14942,28.83788],[111.2074,28.78106],[111.27851,28.76215],[111.4046,28.79057],[111.52242,28.98609],[111.55932,29.005],[111.5927,28.99022],[111.6265,28.99588],[111.65456,29.01267],[111.6788,29.01267],[111.70515,28.99244],[111.74443,28.98774],[111.79641,29.0096],[111.86504,29.01161],[111.99289,28.98485]],[[112.90487,29.03138],[112.99355,29.14745]],[[113.06931,29.38766],[113.1277,29.46278]]]},"properties":{"scalerank":6,"featurecla":"River","name":"Yuan","note":null,"min_zoom":5,"name_alt":null,"name_en":"Yuan","min_label":6}}
]}