{"type":"FeatureCollection", "features": [
{"type":"Feature","geometry":{"type":"Polygon","coordinates":[[[118.60469,33.17207],[118.65293,33.17383],[118.67842,33.12417],[118.68086,33.07651],[118.71553,33.08931],[118.77822,33.17637],[118.83379,33.30444],[118.86055,33.33867],[118.86055,33.35654],[118.77432,33.44277],[118.66357,33.46309],[118.6084,33.51489],[118.57119,33.61982],[118.54424,33.64463],[118.49307,33.62266],[118.4877,33.53984],[118.54697,33.43691],[118.60713,33.37603],[118.57002,33.37188],[118.49004,33.40147],[118.44648,33.40684],[118.3917,33.33804],[118.31836,33.26836],[118.27305,33.26729],[118.23291,33.28809],[118.24922,33.22114],[118.32217,33.18247],[118.45449,33.16016],[118.47012,33.12778],[118.45986,33.09863],[118.43965,33.06792],[118.4166,33.03818],[118.40723,33.00986],[118.34023,32.99424],[118.2749,33.04478],[118.22656,33.14287],[118.1749,33.21021],[118.11426,33.2147],[117.9915,33.18721],[117.91162,33.18101],[117.88633,33.15718],[117.87441,33.09321],[117.85137,33.06216],[117.80898,33.0481],[117.83818,33.03838],[117.8916,33.06455],[117.91465,33.12598],[117.97852,33.14233],[118.10205,33.1438],[118.18232,33.13936],[118.23428,33.04629],[118.24033,33.00845],[118.22578,32.99058],[118.13018,33.02778],[118.08418,33.00547],[118.0499,32.96382],[118.06621,32.93555],[118.08818,32.95835],[118.14209,32.98613],[118.18086,32.97129],[118.1919,32.94126],[118.17119,32.90615],[118.1832,32.88477],[118.22705,32.89663],[118.2666,32.92481],[118.43076,32.97275],[118.4917,32.99805],[118.51865,33.03633],[118.57354,33.14082],[118.60469,33.17207]]]},"properties":{"scalerank":0,"featurecla":"Lake","name":"Hongze Hu","name_alt":null,"note":null,"admin":null,"namepar":null,"min_zoom":3,"min_label":4,"name_abb":"Hongze Hu","label":"Hongze Hu","wikidataid":"Q31845950","name_ar":"بحيرة هونغز","name_bn":"হংজে হু","name_de":"Hongze Hu","name_en":"Hongze Lake","name_es":"Hongze Hu","name_fr":"Lac Hongze","name_el":"Χονγκζέ Χου","name_hi":"होंग्ज़े हु","name_hu":"Hongze Hu","name_id":"Danau Hongze","name_it":"Lago Hongze","name_ja":"洪沢湖","name_ko":"홍제 후","name_nl":"Hongze Lake","name_pl":"Hongze Hu","name_pt":"Lago Hongze","name_ru":"озеро Хунцзэху","name_sv":"Hongze Hu","name_tr":"Hongze Hu","name_vi":"Hồ Hồng Trạch","name_zh":"洪泽湖","ne_id":1159113359,"name_fa":"هونگز هو","name_he":"הונגזה","name_uk":"Хонжху","name_ur":"ہونگزی ہو","name_zht":"宏澤湖"}},
{"type":"Feature","geometry":{"type":"Polygon","coordinates":[[[120.60166,31.08745],[120.53994,31.1271],[120.46074,31.08081],[120.42305,31.08306],[120.39473,31.10039],[120.44023,31.15332],[120.43066,31.2002],[120.39141,31.22705],[120.35713,31.26982],[120.32647,31.31973],[120.33135,31.34951],[120.37227,31.38569],[120.38037,31.42905],[120.325,31.4417],[120.2709,31.44463],[120.25107,31.47549],[120.25596,31.49492],[120.2544,31.50996],[120.21856,31.53184],[120.1082,31.4918],[119.9874,31.3918],[119.93936,31.25298],[119.97803,31.09106],[120.10322,30.97329],[120.23604,30.93599],[120.39443,30.97061],[120.60166,31.08745]]]},"properties":{"scalerank":0,"featurecla":"Lake","name":"Tai Hu","name_alt":null,"note":null,"admin":null,"namepar":null,"min_zoom":4,"min_label":5,"name_abb":"Tai Hu","label":"Tai Hu","wikidataid":"Q140712","name_ar":"بحيرة تاي","name_bn":"তাই হু","name_de":"Tai Hu","name_en":"Tai","name_es":"Taihu","name_fr":"Tai","name_el":"Τάι Χου","name_hi":"ताइहू झील","name_hu":"Taj-tó","name_id":"Taihu","name_it":"Tai Hu","name_ja":"太湖","name_ko":"타이 호","name_nl":"Taihu","name_pl":"Tai Hu","name_pt":"Taihu","name_ru":"Тайху","name_sv":"Tai Hu","name_tr":"Tai","name_vi":"Thái","name_zh":"太湖","ne_id":1159113611,"name_fa":"رود تای","name_he":"טאיהו","name_uk":"Тайху","name_ur":"تائی ہو","name_zht":"太湖"}},
{"type":"Feature","geometry":{"type":"Polygon","coordinates":[[[116.70576,29.13623],[116.67354,29.15869],[116.66084,29.19023],[116.66367,29.22612],[116.64014,29.23667],[116.60391,29.23667],[116.54033,29.24023],[116.46865,29.2501],[116.43994,29.23613],[116.40684,29.17622],[116.36191,29.15376],[116.35801,29.18565],[116.36846,29.22251],[116.34336,29.23374],[116.31045,29.23154],[116.15293,29.25259],[116.13662,29.30933],[116.15283,29.33418],[116.19609,29.36157],[116.18789,29.38203],[116.14277,29.38648],[116.11514,29.40186],[116.10977,29.42661],[116.14453,29.45356],[116.15898,29.51885],[116.18066,29.57266],[116.19893,29.60352],[116.20742,29.64502],[116.23477,29.66587],[116.22969,29.69839],[116.19756,29.75137],[116.18047,29.75122],[116.11309,29.72588],[116.08232,29.70254],[116.09961,29.68799],[116.11748,29.65313],[116.09063,29.55527],[116.02598,29.45293],[116.00195,29.39434],[115.96504,29.31138],[115.98184,29.2792],[116.04727,29.19023],[116.06387,29.14888],[116.09727,29.10591],[116.3291,28.96094],[116.34775,28.90571],[116.40918,28.90527],[116.41807,28.87969],[116.44141,28.85952],[116.46846,28.80518],[116.51152,28.80381],[116.53662,28.84546],[116.53008,28.89448],[116.50322,28.95303],[116.47725,29.04302],[116.49551,29.12241],[116.52109,29.14326],[116.58106,29.12827],[116.61777,29.11523],[116.63467,29.1019],[116.67236,29.09761],[116.70859,29.10239],[116.70576,29.13623]]]},"properties":{"scalerank":0,"featurecla":"Lake","name":"Poyang Hu","name_alt":null,"note":null,"admin":null,"namepar":null,"min_zoom":4,"min_label":5,"name_abb":"Poyang Hu","label":"Poyang Hu","wikidataid":"Q207690","name_ar":"بحيرة بويانغ","name_bn":"পোয়াং হু","name_de":"Poyang","name_en":"Poyang","name_es":"Poyang","name_fr":"Poyang","name_el":"Πουανγκ Χου","name_hi":"पोयांग झील","name_hu":"Poyang Hu","name_id":"Poyang","name_it":"Poyang","name_ja":"鄱陽湖","name_ko":"포양호","name_nl":"Poyangmeer","name_pl":"Poyang Hu","name_pt":"Poyang","name_ru":"Поянху","name_sv":"Poyangsjön","name_tr":"Poyang","name_vi":"Bà Dương","name_zh":"鄱阳湖","ne_id":1159114015,"name_fa":"دریاچه پویانگ","name_he":"אגם פויאנג","name_uk":"Поянху","name_ur":"پویانگ ہو","name_zht":"鄱陽湖"}},
{"type":"Feature","geometry":{"type":"Polygon","coordinates":[[[116.46084,30.05454],[116.4417,30.07725],[116.38604,30.06929],[116.32705,30.08682],[116.29766,30.08613],[116.28106,30.07925],[116.25693,30.09351],[116.25879,30.0481],[116.28994,29.9936],[116.38809,29.96597],[116.49795,29.9644],[116.51992,29.98823],[116.49619,30.02017],[116.46084,30.05454]]]},"properties":{"scalerank":0,"featurecla":"Lake","name":"Daguan Hu","name_alt":null,"note":null,"admin":null,"namepar":null,"min_zoom":4,"min_label":5,"name_abb":"Daguan Hu","label":"Daguan Hu","wikidataid":"Q10934898","name_ar":"بحيرة داغوان","name_bn":"দাগুয়ান হু","name_de":"Daguan Hu","name_en":"Daguan Lake","name_es":"Daguan Hu","name_fr":"Daguan Lake","name_el":"Νταγκουάν Χου","name_hi":"डगुआन हु","name_hu":"Daguan Hu","name_id":"Danau Daguan","name_it":"Daguan Hu","name_ja":"大官湖","name_ko":"다관 후","name_nl":"Daguan Lake","name_pl":"Jezioro Daguan","name_pt":"Lago Daguan","name_ru":"озеро Дагуан","name_sv":"Daguan Hu","name_tr":"Daguan Hu","name_vi":"Hồ Đại Quan","name_zh":"大官湖","ne_id":1159114031,"name_fa":"داگوآن هو","name_he":"דגואן","name_uk":"Дагуан Ху","name_ur":"ڈیگوان ہو","name_zht":"大官湖"}},
{"type":"Feature","geometry":{"type":"Polygon","coordinates":[[[116.19512,30.0375],[116.15039,30.06104],[116.12891,30.02617],[116.11826,30.00039],[116.07324,30.00039],[115.98535,30.01606],[115.97744,29.95166],[116.04414,29.8811],[116.13096,29.89756],[116.21113,29.90762],[116.25361,29.93506],[116.25977,29.97637],[116.25254,30.0104],[116.2417,30.03213],[116.19512,30.0375]]]},"properties":{"scalerank":0,"featurecla":"Lake","name":"Long Hu","name_alt":null,"note":null,"admin":null,"namepar":null,"min_zoom":4,"min_label":5,"name_abb":"Long Hu","label":"Long Hu","wikidataid":"Q6673852","name_ar":"بحيرة لونج","name_bn":"লং হু","name_de":"Longhu","name_en":"Longgan","name_es":"Longgan","name_fr":"Longhu","name_el":"Λονγκ Χου","name_hi":"लॉन्ग हू","name_hu":"Long Hu","name_id":"Long Hu","name_it":"Long Hu","name_ja":"龍湖","name_ko":"롱 후","name_nl":"Longhu Lake","name_pl":"Jezioro Long","name_pt":"Lago Long","name_ru":"озеро Лунху","name_sv":"Longgan Hu","name_tr":"Long Hu","name_vi":"Long Hồ","name_zh":"龙感湖","ne_id":1159114049,"name_fa":"لونگ هو","name_he":"אגם לונג","name_uk":"Лонгху","name_ur":"لانگ ہو","name_zht":"龙感湖"}},
{"type":"Feature","geometry":{"type":"Polygon","coordinates":[[[114.35049,30.196],[114.36523,30.16514],[114.4084,30.10645],[114.44522,30.08467],[114.47383,30.1585],[114.50918,30.1939],[114.54248,30.18818],[114.58115,30.13721],[114.62344,30.0959],[114.6417,30.13291],[114.62334,30.25767],[114.60283,30.29951],[114.53945,30.34502],[114.50117,30.36621],[114.45801,30.3644],[114.47441,30.33325],[114.50117,30.31055],[114.4958,30.2894],[114.44356,30.28516],[114.40586,30.26782],[114.39492,30.23623],[114.37109,30.2106],[114.35049,30.196]]]},"properties":{"scalerank":0,"featurecla":"Lake","name":"Liangzi Hu","name_alt":null,"note":null,"admin":null,"namepar":null,"min_zoom":4,"min_label":5,"name_abb":"Liangzi Hu","label":"Liangzi Hu","wikidataid":"Q7374197","name_ar":"بحيرة ليانغزي","name_bn":"লিয়াংজি হু","name_de":"Liangzi-See","name_en":"Liangzi","name_es":"Liangzi Hu","name_fr":"Lac Liangzi","name_el":"Λιανγκζί Χου","name_hi":"लिआंगज़ी हु","name_hu":"Liangzi Hu","name_id":"Liangzi","name_it":"Liangzi Hu","name_ja":"梁子湖","name_ko":"량지 후","name_nl":"Liangzi Lake","name_pl":"Jezioro Liangzi","name_pt":"Lago Liangzi","name_ru":"озеро Лянцзыху","name_sv":"Liangzi Hu","name_tr":"Liangzi Hu","name_vi":"Hồ Lương Tử","name_zh":"梁子湖","ne_id":1159114069,"name_fa":"لیانگزی هو","name_he":"אגם ליאנגזי","name_uk":"Ліангці","name_ur":"لیانگزی ہو","name_zht":"梁子湖"}},
{"type":"Feature","geometry":{"type":"Polygon","coordinates":[[[119.40684,32.79356],[119.39697,32.91582],[119.37227,33.00039],[119.3457,33.02363],[119.34902,33.07778],[119.30371,33.16401],[119.2541,33.20078],[119.22617,33.1999],[119.16992,33.18608],[119.13457,33.14409],[119.10225,33.06899],[119.05938,33.05791],[118.95723,33.07109],[118.88184,33.07734],[118.90654,33.05815],[118.96563,33.0377],[119.03477,33.03096],[119.09922,33.02695],[119.15381,33.0645],[119.16426,33.08984],[119.16777,33.11758],[119.17969,33.14824],[119.21523,33.15625],[119.23691,33.1543],[119.26856,33.12085],[119.30313,33.08516],[119.31445,33.0544],[119.29648,33.04131],[119.26397,33.03398],[119.24492,33.01318],[119.25117,32.97803],[119.25313,32.94312],[119.24072,32.9186],[119.2419,32.89644],[119.22852,32.88218],[119.1877,32.87793],[119.13027,32.8772],[119.08418,32.86597],[119.0794,32.85454],[119.09219,32.83638],[119.12539,32.79805],[119.14697,32.75312],[119.16484,32.70562],[119.17344,32.68574],[119.20098,32.69097],[119.25342,32.73618],[119.29981,32.74795],[119.35,32.74946],[119.3915,32.75127],[119.40684,32.79356]]]},"properties":{"scalerank":0,"featurecla":"Lake","name":"Gaoyou Hu","name_alt":null,"note":null,"admin":null,"namepar":null,"min_zoom":4.7,"min_label":6,"name_abb":"Gaoyou Hu","label":"Gaoyou Hu","wikidataid":"Q630331","name_ar":"بحيرة جاويو","name_bn":"গাওইউ হু","name_de":"Gaoyou Hu","name_en":"Gaoyou","name_es":"Gaoyou","name_fr":"Gaoyou Lake","name_el":"Γκαογού Χου","name_hi":"गाओउ हु","name_hu":"Gaoyou Hu","name_id":"Danau Gaoyou","name_it":"Gaoyou Hu","name_ja":"高郵湖","name_ko":"가오유 후","name_nl":"Gaoyou Lake","name_pl":"Gaoyou Hu","name_pt":"Lago Gaoyou","name_ru":"Гаоюху","name_sv":"Gaoyou Hu","name_tr":"Gaoyou Hu","name_vi":"Hồ Cao Bưu","name_zh":"高邮湖","ne_id":1159114321,"name_fa":"گائویو هو","name_he":"גאיו","name_uk":"озеро Гаою","name_ur":"گاؤیو ہو","name_zht":"高郵湖"}},
{"type":"Feature","geometry":{"type":"Polygon","coordinates":[[[116.42383,30.10825],[116.46836,30.10376],[116.49375,30.08516],[116.50625,30.07817],[116.52559,30.08931],[116.52529,30.11577],[116.52695,30.14912],[116.54043,30.18003],[116.53906,30.20679],[116.51377,30.2084],[116.47197,30.2042],[116.44336,30.20693],[116.39023,30.22368],[116.37148,30.24414],[116.35693,30.24531],[116.33506,30.23447],[116.31445,30.23027],[116.31699,30.20322],[116.35088,30.17456],[116.37344,30.16065],[116.38662,30.14258],[116.40078,30.11763],[116.42383,30.10825]]]},"properties":{"scalerank":0,"featurecla":"Lake","name":"Po Hu","name_alt":null,"note":null,"admin":null,"namepar":null,"min_zoom":4.7,"min_label":6,"name_abb":"Po Hu","label":"Po Hu","wikidataid":"Q11143308","name_ar":"بحيرة بو","name_bn":"পো হু","name_de":"Pohu Lake","name_en":"Po","name_es":"Po Hu","name_fr":"Pohu","name_el":"Πο Χου","name_hi":"पो हु","name_hu":"Po Hu","name_id":"Po Hu","name_it":"Po Hu","name_ja":"泊湖","name_ko":"포 후","name_nl":"Pohu Lake","name_pl":"Jezioro Po","name_pt":"Lago Po","name_ru":"озеро Боху","name_sv":"Po Hu","name_tr":"Po Hu","name_vi":"Bạc Hồ","name_zh":"泊湖","ne_id":1159114699,"name_fa":"پو هو","name_he":"אגם פה","name_uk":"По ху","name_ur":"پو ہو","name_zht":"泊湖"}},
{"type":"Feature","geometry":{"type":"Polygon","coordinates":[[[117.58106,47.68565],[117.58584,47.67114],[117.60615,47.66602],[117.65488,47.67998],[117.7292,47.71826],[117.80606,47.77241],[117.85586,47.82544],[117.86856,47.86484],[117.84082,47.9105],[117.80107,47.95005],[117.76445,47.96118],[117.70918,47.94751],[117.6375,47.90127],[117.56953,47.8355],[117.53076,47.77642],[117.529,47.73867],[117.5584,47.70986],[117.58106,47.68565]]]},"properties":{"scalerank":0,"featurecla":"Lake","name":"Buyr Nuur","name_alt":"Buir Nur","note":null,"admin":null,"namepar":null,"min_zoom":4.7,"min_label":6,"name_abb":"Buyr Nuur","label":"Buyr Nuur","wikidataid":"Q715788","name_ar":"بحيرة بوار","name_bn":"বুয়ার নূর","name_de":"Buir Nur","name_en":"Buir","name_es":"Buir","name_fr":"Buir","name_el":"Μπουρ Νουρ","name_hi":"बुय्र नूर","name_hu":"Bujr-tó","name_id":"Buir","name_it":"Bujr nuur","name_ja":"ブイル湖","name_ko":"부이르호","name_nl":"Buir","name_pl":"Bujr nuur","name_pt":"Lago Buir","name_ru":"Буйр-Нуур","name_sv":"Buyr Nuur","name_tr":"Buyr","name_vi":"Buir","name_zh":"贝尔湖","ne_id":1159114715,"name_fa":"بویر نور","name_he":"בויר","name_uk":"Буйр-Нуур","name_ur":"بائر نور","name_zht":"貝爾湖"}},
{"type":"Feature","geometry":{"type":"Polygon","coordinates":[[[118.77998,31.40938],[118.81465,31.40195],[118.85,31.39258],[118.91523,31.43506],[118.96016,31.4648],[118.96397,31.50337],[118.94121,31.5541],[118.86738,31.54561],[118.75791,31.54512],[118.72295,31.5417],[118.72354,31.52222],[118.74277,31.49224],[118.74736,31.45889],[118.76846,31.4188],[118.77998,31.40938]]]},"properties":{"scalerank":0,"featurecla":"Lake","name":"Shijiu Hu","name_alt":null,"note":null,"admin":null,"namepar":null,"min_zoom":4.7,"min_label":6,"name_abb":"Shijiu Hu","label":"Shijiu Hu","wikidataid":"Q7374652","name_ar":"بحيرة شيجيو","name_bn":"শিজিউ হু","name_de":"Shijiu Hu","name_en":"Shijiu","name_es":"Shijiu Hu","name_fr":"Lac Shijiu","name_el":"Σιτζιού Χου","name_hi":"शिजिउ हू","name_hu":"Shijiu Hu","name_id":"Danau Shijiu","name_it":"Shijiu Hu","name_ja":"石臼湖","name_ko":"시주 후","name_nl":"Shijiu Lake","name_pl":"Jezioro Shijiu","name_pt":"Lago Shijiu","name_ru":"озеро Шицзю","name_sv":"Shijiu Hu","name_tr":"Shijiu Hu","name_vi":"Hồ Thạch Cữu","name_zh":"石臼湖","ne_id":1159115009,"name_fa":"شیو هو","name_he":"אגם שיג'יו","name_uk":"Шиджуху","name_ur":"شیجو ہو","name_zht":"石臼湖"}},
{"type":"Feature","geometry":{"type":"Polygon","coordinates":[[[113.45127,29.94023],[113.40615,29.95283],[113.36191,29.94932],[113.33125,29.89365],[113.30225,29.88828],[113.24863,29.90405],[113.23027,29.89277],[113.23731,29.8478],[113.2751,29.77979],[113.31221,29.74922],[113.34043,29.75986],[113.36875,29.78521],[113.39121,29.82588],[113.42568,29.87607],[113.454,29.9144],[113.45127,29.94023]]]},"properties":{"scalerank":0,"featurecla":"Lake","name":"Hong Hu","name_alt":null,"note":null,"admin":null,"namepar":null,"min_zoom":4.7,"min_label":6,"name_abb":"Hong Hu","label":"Hong Hu","wikidataid":"Q5895614","name_ar":"بحيرة هونغ","name_bn":"হং হু","name_de":"Hong Hu","name_en":"Hong","name_es":"Hong Hu","name_fr":"Hong","name_el":"Χονγκ Χου","name_hi":"हांग हु","name_hu":"Hong Hu","name_id":"Danau Hong","name_it":"Hong Hu","name_ja":"洪湖","name_ko":"홍 후","name_nl":"Hong Lake","name_pl":"Hong Hu","name_pt":"Lago Hong","name_ru":"озеро Хонгху","name_sv":"Hong Hu","name_tr":"Hong Hu","name_vi":"Hồng Hồ","name_zh":"洪湖","ne_id":1159115027,"name_fa":"هونگ هو","name_he":"אגם הונג","name_uk":"Хонгху","name_ur":"ہونگ ہو","name_zht":"洪湖"}},
{"type":"Feature","geometry":{"type":"Polygon","coordinates":[[[117.94121,31.52051],[117.91865,31.55059],[117.80977,31.6208],[117.7333,31.65967],[117.65156,31.6543],[117.59395,31.60942],[117.54307,31.59092],[117.48691,31.59316],[117.44805,31.61006],[117.43379,31.65142],[117.41279,31.69414],[117.36631,31.70879],[117.31543,31.69746],[117.29717,31.64981],[117.31719,31.59165],[117.38193,31.53604],[117.46787,31.4666],[117.56309,31.44512],[117.62344,31.45454],[117.70625,31.52446],[117.78447,31.57915],[117.82988,31.56982],[117.91172,31.52158],[117.94121,31.52051]]]},"properties":{"scalerank":0,"featurecla":"Lake","name":"Chao Hu","name_alt":null,"note":null,"admin":null,"namepar":null,"min_zoom":4.7,"min_label":6,"name_abb":"Chao Hu","label":"Chao Hu","wikidataid":"Q1062495","name_ar":"بحيرة تشاو","name_bn":"শাও হু","name_de":"Chao Hu","name_en":"Chao","name_es":"Chao","name_fr":"Chao","name_el":"Τσάο Χου","name_hi":"चाओ हु","name_hu":"Chao Hu","name_id":"Danau Chao","name_it":"Lago di Chao Hu","name_ja":"巣湖","name_ko":"차오호","name_nl":"Chao","name_pl":"Chaohu","name_pt":"Lago Chao","name_ru":"Чаоху","name_sv":"Chao Hu","name_tr":"Chao Hu","name_vi":"Sào","name_zh":"巢湖","ne_id":1159115069,"name_fa":"چائو هو","name_he":"צ'או","name_uk":"Чаоху","name_ur":"چاؤ ہو","name_zht":"巢湖"}},
{"type":"Feature","geometry":{"type":"Polygon","coordinates":[[[114.83887,30.28667],[114.84609,30.30239],[114.83379,30.32715],[114.80566,30.34541],[114.78418,30.34414],[114.76377,30.34507],[114.71289,30.32964],[114.67373,30.30044],[114.68008,30.2773],[114.679,30.25],[114.67891,30.22808],[114.7043,30.2124],[114.73457,30.21201],[114.76231,30.21123],[114.77803,30.21509],[114.78086,30.22065],[114.75996,30.23799],[114.74316,30.26338],[114.73926,30.27944],[114.75254,30.28301],[114.78272,30.27773],[114.81231,30.28252],[114.83887,30.28667]]]},"properties":{"scalerank":0,"featurecla":"Lake","name":null,"name_alt":null,"note":"_untitled_10","admin":null,"namepar":null,"min_zoom":4.7,"min_label":6,"name_abb":null,"label":null,"wikidataid":null,"name_ar":null,"name_bn":null,"name_de":null,"name_en":null,"name_es":null,"name_fr":null,"name_el":null,"name_hi":null,"name_hu":null,"name_id":null,"name_it":null,"name_ja":null,"name_ko":null,"name_nl":null,"name_pl":null,"name_pt":null,"name_ru":null,"name_sv":null,"name_tr":null,"name_vi":null,"name_zh":null,"ne_id":1159115135,"name_fa":null,"name_he":null,"name_uk":null,"name_ur":null,"name_zht":null}},
{"type":"Feature","geometry":{"type":"Polygon","coordinates":[[[114.60078,30.66152],[114.58574,30.66318],[114.58379,30.65049],[114.62188,30.60835],[114.69648,30.61274],[114.75606,30.6501],[114.78633,30.6625],[114.78135,30.70064],[114.7459,30.7376],[114.71943,30.75107],[114.70332,30.7354],[114.67393,30.72363],[114.646,30.71484],[114.64941,30.67388],[114.63994,30.65952],[114.62188,30.65649],[114.60078,30.66152]]]},"properties":{"scalerank":0,"featurecla":"Lake","name":null,"name_alt":null,"note":"_untitled_9","admin":null,"namepar":null,"min_zoom":4.7,"min_label":6,"name_abb":null,"label":null,"wikidataid":null,"name_ar":null,"name_bn":null,"name_de":null,"name_en":null,"name_es":null,"name_fr":null,"name_el":null,"name_hi":null,"name_hu":null,"name_id":null,"name_it":null,"name_ja":null,"name_ko":null,"name_nl":null,"name_pl":null,"name_pt":null,"name_ru":null,"name_sv":null,"name_tr":null,"name_vi":null,"name_zh":null,"ne_id":1159115153,"name_fa":null,"name_he":null,"name_uk":null,"name_ur":null,"name_zht":null}},
{"type":"Feature","geometry":{"type":"Polygon","coordinates":[[[117.32617,34.58735],[117.31777,34.62144],[117.26641,34.66543],[117.17891,34.71934],[117.13945,34.72539],[117.12832,34.6625],[117.14121,34.61201],[117.17383,34.54336],[117.20986,34.4981],[117.24971,34.50161],[117.29473,34.54858],[117.32617,34.58735]]]},"properties":{"scalerank":0,"featurecla":"Lake","name":"Weishan Hu","name_alt":null,"note":null,"admin":null,"namepar":null,"min_zoom":4.7,"min_label":6,"name_abb":"Weishan Hu","label":"Weishan Hu","wikidataid":"Q839287","name_ar":"بحيرة وايشان","name_bn":"উইশান হু","name_de":"Weishan Lake","name_en":"Nansi","name_es":"Nansi","name_fr":"Lac de Weishan","name_el":"Γουεϊσάν Χου","name_hi":"वीशान हु","name_hu":"Weishan Hu","name_id":"Danau Weishan","name_it":"Weishan Hu","name_ja":"囲山湖","name_ko":"웨이산 후","name_nl":"Nansi","name_pl":"Jezioro Weishan","name_pt":"Lago Weishan","name_ru":"Наньсыху","name_sv":"Weishan Hu","name_tr":"Weishan Hu","name_vi":"Hồ Vi Sơn","name_zh":"微山湖","ne_id":1159115165,"name_fa":"ویشان هو","name_he":"אגם ווישאן","name_uk":"Вейшанху","name_ur":"ویشان ہو","name_zht":"微山湖"}},
{"type":"Feature","geometry":{"type":"Polygon","coordinates":[[[114.60078,30.34365],[114.62285,30.33862],[114.65508,30.34561],[114.68301,30.39707],[114.72715,30.41982],[114.75254,30.429],[114.74756,30.44312],[114.75244,30.46318],[114.75645,30.47725],[114.73867,30.49443],[114.70107,30.51216],[114.67773,30.49707],[114.66602,30.49004],[114.64004,30.48648],[114.60859,30.49561],[114.60703,30.48315],[114.6292,30.45596],[114.63291,30.43989],[114.63057,30.42017],[114.60098,30.39878],[114.57549,30.40493],[114.5332,30.43496],[114.49492,30.43872],[114.48223,30.43096],[114.49932,30.41763],[114.55293,30.38428],[114.60078,30.34365]]]},"properties":{"scalerank":0,"featurecla":"Lake","name":null,"name_alt":null,"note":"_untitled_8","admin":null,"namepar":null,"min_zoom":4.7,"min_label":6,"name_abb":null,"label":null,"wikidataid":null,"name_ar":null,"name_bn":null,"name_de":null,"name_en":null,"name_es":null,"name_fr":null,"name_el":null,"name_hi":null,"name_hu":null,"name_id":null,"name_it":null,"name_ja":null,"name_ko":null,"name_nl":null,"name_pl":null,"name_pt":null,"name_ru":null,"name_sv":null,"name_tr":null,"name_vi":null,"name_zh":null,"ne_id":1159115185,"name_fa":null,"name_he":null,"name_uk":null,"name_ur":null,"name_zht":null}},
{"type":"Feature","geometry":{"type":"Polygon","coordinates":[[[114.30078,30.0249],[114.29414,30.04297],[114.27344,30.0438],[114.25273,30.04487],[114.23731,30.08359],[114.246,30.11523],[114.24883,30.14058],[114.21816,30.14082],[114.17695,30.11387],[114.14668,30.08252],[114.14336,29.9875],[114.1707,29.92095],[114.21768,29.90132],[114.25508,29.90615],[114.26426,29.91523],[114.24375,29.93774],[114.25215,29.97217],[114.28926,30.00249],[114.30078,30.0249]]]},"properties":{"scalerank":0,"featurecla":"Lake","name":"Huangtang Hu","name_alt":null,"note":null,"admin":null,"namepar":null,"min_zoom":4.7,"min_label":6,"name_abb":"Huangtang Hu","label":"Huangtang Hu","wikidataid":"-1","name_ar":"بحيرة هوانغتانغ","name_bn":"হুয়াংতাং হু","name_de":"Huangtang Hu","name_en":"Futou Lake","name_es":"Huangtang Hu","name_fr":"Huangtanghu","name_el":"Χουανγκτάνγκ Χου","name_hi":"हुआंगतांग हु","name_hu":"Huangtang Hu","name_id":"Danau Huangtang","name_it":"Huangtang Hu","name_ja":"黄塘湖","name_ko":"황탕 후","name_nl":"Huangtang Lake","name_pl":"Jezioro Huangtang","name_pt":"Lago Huangtang","name_ru":"озеро Чуантан","name_sv":"Huangtang Hu","name_tr":"Huangtang Hu","name_vi":"Hồ Phủ Đầu","name_zh":"黄塘湖","ne_id":1159115205,"name_fa":"هوآنگتانگ هو","name_he":"הואנגטנג","name_uk":"Хуангтангху","name_ur":"ہوانگٹانگ ہو","name_zht":"黃塘湖"}},
{"type":"Feature","geometry":{"type":"Polygon","coordinates":[[[114.15762,29.87183],[114.15215,29.89038],[114.13027,29.93535],[114.10088,30.02246],[114.07363,30.02681],[114.01856,30.00107],[113.94063,29.98101],[113.94365,29.96646],[113.96963,29.96279],[113.99619,29.95918],[114.00322,29.94238],[113.98379,29.91621],[113.96289,29.89238],[113.96865,29.88018],[113.99023,29.87866],[114.02949,29.89805],[114.0626,29.92749],[114.08721,29.93374],[114.11387,29.8832],[114.13682,29.8624],[114.15762,29.87183]]]},"properties":{"scalerank":0,"featurecla":"Lake","name":null,"name_alt":null,"note":"_untitled_7","admin":null,"namepar":null,"min_zoom":4.7,"min_label":6,"name_abb":null,"label":null,"wikidataid":null,"name_ar":null,"name_bn":null,"name_de":null,"name_en":null,"name_es":null,"name_fr":null,"name_el":null,"name_hi":null,"name_hu":null,"name_id":null,"name_it":null,"name_ja":null,"name_ko":null,"name_nl":null,"name_pl":null,"name_pt":null,"name_ru":null,"name_sv":null,"name_tr":null,"name_vi":null,"name_zh":null,"ne_id":1159115225,"name_fa":null,"name_he":null,"name_uk":null,"name_ur":null,"name_zht":null}}
]}